[{"OBJECT_NAME":"STARLINK-31274","OBJECT_ID":"2024-041E","EPOCH":"2026-03-09T01:19:52.456800","MEAN_MOTION":15.27581829,"ECCENTRICITY":8.245e-5,"INCLINATION":43.0034,"RA_OF_ASC_NODE":314.3613,"ARG_OF_PERICENTER":276.4508,"MEAN_ANOMALY":83.625,"EPHEMERIS_TYPE":0,"CLASSIFICATION_TYPE":"U","NORAD_CAT_ID":59078,"ELEMENT_SET_NO":999,"REV_AT_EPOCH":11417,"BSTAR":2.995798e-5,"MEAN_MOTION_DOT":5.63e-6,"MEAN_MOTION_DDOT":0},{"OBJECT_NAME":"OBJECT C","OBJECT_ID":"2024-085C","EPOCH":"2026-03-09T22:49:58.289376","MEAN_MOTION":15.31893958,"ECCENTRICITY":0.00283931,"INCLINATION":97.3357,"RA_OF_ASC_NODE":145.6975,"ARG_OF_PERICENTER":37.3887,"MEAN_ANOMALY":322.9323,"EPHEMERIS_TYPE":0,"CLASSIFICATION_TYPE":"U","NORAD_CAT_ID":59679,"ELEMENT_SET_NO":999,"REV_AT_EPOCH":10244,"BSTAR":0.00039740634,"MEAN_MOTION_DOT":0.0001232,"MEAN_MOTION_DDOT":0}]
